$$SOE
2460728.500000000, A.D. 2025-Feb-22 00:00:00.0000, -2.242101014093737E+08, 4.061691877914310E+08, -7.338205901889773E+07,
2460735.500000000, A.D. 2025-Mar-01 00:00:00.0000, -2.328566355728684E+08, 4.013576348882239E+08, -7.402245599961427E+07,
2460742.500000000, A.D. 2025-Mar-08 00:00:00.0000, -2.413940846735527E+08, 3.963583369502516E+08, -7.462818956180163E+07,
2460749.500000000, A.D. 2025-Mar-15 00:00:00.0000, -2.498185691134082E+08, 3.911738233009628E+08, -7.519901294552644E+07,
2460756.500000000, A.D. 2025-Mar-22 00:00:00.0000, -2.581262630652871E+08, 3.858066942678113E+08, -7.573469354760613E+07,
2460763.500000000, A.D. 2025-Mar-29 00:00:00.0000, -2.663133961162798E+08, 3.802596183662335E+08, -7.623501298349425E+07,
2460770.500000000, A.D. 2025-Apr-05 00:00:00.0000, -2.743762532081044E+08, 3.745353303805004E+08, -7.669976723199180E+07,
2460777.500000000, A.D. 2025-Apr-12 00:00:00.0000, -2.823111748021652E+08, 3.686366304466366E+08, -7.712876667867009E+07,
2460784.500000000, A.D. 2025-Apr-19 00:00:00.0000, -2.901145574567116E+08, 3.625663832562264E+08, -7.752183611323056E+07,
2460791.500000000, A.D. 2025-Apr-26 00:00:00.0000, -2.977828545449315E+08, 3.563275171772397E+08, -7.787881472231445E+07,
2460798.500000000, A.D. 2025-May-03 00:00:00.0000, -3.053125770012720E+08, 3.499230233102700E+08, -7.819955608668029E+07,
2460805.500000000, A.D. 2025-May-10 00:00:00.0000, -3.127002940685193E+08, 3.433559544882514E+08, -7.848392818479025E+07,
2460812.500000000, A.D. 2025-May-17 00:00:00.0000, -3.199426340099975E+08, 3.366294241780980E+08, -7.873181340965058E+07,
2460819.500000000, A.D. 2025-May-24 00:00:00.0000, -3.270362846139660E+08, 3.297466052292179E+08, -7.894310861937712E+07,
2460826.500000000, A.D. 2025-May-31 00:00:00.0000, -3.339779930734246E+08, 3.227107287791362E+08, -7.911772523438913E+07,
2460833.500000000, A.D. 2025-Jun-07 00:00:00.0000, -3.407645656436675E+08, 3.155250845202338E+08, -7.925558924609274E+07,
2460840.500000000, A.D. 2025-Jun-14 00:00:00.0000, -3.473928694440823E+08, 3.081930216609262E+08, -7.935664097521114E+07,
2460847.500000000, A.D. 2025-Jun-21 00:00:00.0000, -3.538598351876351E+08, 3.007179473104714E+08, -7.942083495887500E+07,
2460854.500000000, A.D. 2025-Jun-28 00:00:00.0000, -3.601624577088709E+08, 2.931033240500789E+08, -7.944814010823232E+07,
2460861.500000000, A.D. 2025-Jul-05 00:00:00.0000, -3.662977958088511E+08, 2.853526688447338E+08, -7.943853982104805E+07,
2460868.500000000, A.D. 2025-Jul-12 00:00:00.0000, -3.722629726100891E+08, 2.774695524904912E+08, -7.939203200645497E+07,
2460875.500000000, A.D. 2025-Jul-19 00:00:00.0000, -3.780551762325216E+08, 2.694575990221069E+08, -7.930862908633430E+07,
2460882.500000000, A.D. 2025-Jul-26 00:00:00.0000, -3.836716605809111E+08, 2.613204850235944E+08, -7.918835799697554E+07,
2460889.500000000, A.D. 2025-Aug-02 00:00:00.0000, -3.891097461788170E+08, 2.530619388623381E+08, -7.903126019501808E+07,
2460896.500000000, A.D. 2025-Aug-09 00:00:00.0000, -3.943668210263400E+08, 2.446857398312125E+08, -7.883739167081150E+07,
2460903.500000000, A.D. 2025-Aug-16 00:00:00.0000, -3.994403414052798E+08, 2.361957171346242E+08, -7.860682298119016E+07,
2460910.500000000, A.D. 2025-Aug-23 00:00:00.0000, -4.043278323395543E+08, 2.275957487340381E+08, -7.833963932685453E+07,
2460917.500000000, A.D. 2025-Aug-30 00:00:00.0000, -4.090268873823830E+08, 2.188897607658390E+08, -7.803594064581501E+07,
2460924.500000000, A.D. 2025-Sep-06 00:00:00.0000, -4.135351691494062E+08, 2.100817285304225E+08, -7.769584151091072E+07,
2460931.500000000, A.D. 2025-Sep-13 00:00:00.0000, -4.178504122704028E+08, 2.011756765692316E+08, -7.731947088140486E+07,
2460938.500000000, A.D. 2025-Sep-20 00:00:00.0000, -4.219704254865727E+08, 1.921756761856284E+08, -7.690697214312117E+07,
2460945.500000000, A.D. 2025-Sep-27 00:00:00.0000, -4.258930918335228E+08, 1.830858435195313E+08, -7.645850327891821E+07,
2460952.500000000, A.D. 2025-Oct-04 00:00:00.0000, -4.296163689274791E+08, 1.739103387130277E+08, -7.597423694025944E+07,
2460959.500000000, A.D. 2025-Oct-11 00:00:00.0000, -4.331382897296724E+08, 1.646533652237784E+08, -7.545436046302477E+07,
2460966.500000000, A.D. 2025-Oct-18 00:00:00.0000, -4.364569635048089E+08, 1.553191690119470E+08, -7.489907587579393E+07,
2460973.500000000, A.D. 2025-Oct-25 00:00:00.0000, -4.395705768325796E+08, 1.459120376108806E+08, -7.430859991176650E+07,
2460980.500000000, A.D. 2025-Nov-01 00:00:00.0000, -4.424773946312676E+08, 1.364362990952483E+08, -7.368316402585410E+07,
2460987.500000000, A.D. 2025-Nov-08 00:00:00.0000, -4.451757611582446E+08, 1.268963209128213E+08, -7.302301442219520E+07,
2460994.500000000, A.D. 2025-Nov-15 00:00:00.0000, -4.476641008400204E+08, 1.172965085190755E+08, -7.232841211053146E+07,
2461001.500000000, A.D. 2025-Nov-22 00:00:00.0000, -4.499409185303556E+08, 1.076413040332297E+08, -7.159963301092586E+07,
2461008.500000000, A.D. 2025-Nov-29 00:00:00.0000, -4.520047993506932E+08, 9.793518604987866E+07, -7.083696800061172E+07,
2461015.500000000, A.D. 2025-Dec-06 00:00:00.0000, -4.538544103914138E+08, 8.818267046953186E+07, -7.004072270581517E+07,
2461022.500000000, A.D. 2025-Dec-13 00:00:00.0000, -4.554885038416436E+08, 7.838830897783656E+07, -6.921121735441667E+07,
2461029.500000000, A.D. 2025-Dec-20 00:00:00.0000, -4.569059180535601E+08, 6.855668619731955E+07, -6.834878692597927E+07,
2461036.500000000, A.D. 2025-Dec-27 00:00:00.0000, -4.581055776121994E+08, 5.869241810176644E+07, -6.745378128780919E+07,
2461043.500000000, A.D. 2026-Jan-03 00:00:00.0000, -4.590864938689550E+08, 4.880015107539280E+07, -6.652656523306876E+07,
2461050.500000000, A.D. 2026-Jan-10 00:00:00.0000, -4.598477658292742E+08, 3.888456093670970E+07, -6.556751848652421E+07,
2461057.500000000, A.D. 2026-Jan-17 00:00:00.0000, -4.603885811617032E+08, 2.895035183507931E+07, -6.457703570654310E+07,
2461064.500000000, A.D. 2026-Jan-24 00:00:00.0000, -4.607082172494872E+08, 1.900225504209948E+07, -6.355552648820610E+07,
2461071.500000000, A.D. 2026-Jan-31 00:00:00.0000, -4.608060422603201E+08, 9.045027629711181E+06, -6.250341536983761E+07,
2461078.500000000, A.D. 2026-Feb-07 00:00:00.0000, -4.606815161718339E+08, -9.165490230412148E+05, -6.142114185286310E+07,
2461085.500000000, A.D. 2026-Feb-14 00:00:00.0000, -4.603341914988292E+08, -1.087767091057153E+07, -6.030916045904657E+07,
2461092.500000000, A.D. 2026-Feb-21 00:00:00.0000, -4.597637133334974E+08, -2.083351269229525E+07, -5.916794081303494E+07,
2461099.500000000, A.D. 2026-Feb-28 00:00:00.0000, -4.589698197819895E+08, -3.077922744273647E+07, -5.799796755596057E+07,
2461106.500000000, A.D. 2026-Mar-07 00:00:00.0000, -4.579523448551475E+08, -4.070994681184649E+07, -5.679974006045890E+07,
2461113.500000000, A.D. 2026-Mar-14 00:00:00.0000, -4.567112210380045E+08, -5.062078392924135E+07, -5.557377239233439E+07,
2461120.500000000, A.D. 2026-Mar-21 00:00:00.0000, -4.552464797535292E+08, -6.050683615413328E+07, -5.432059344485153E+07,
2461127.500000000, A.D. 2026-Mar-28 00:00:00.0000, -4.535582517262236E+08, -7.036318664309867E+07, -5.304074697606036E+07,
2461134.500000000, A.D. 2026-Apr-04 00:00:00.0000, -4.516467678463743E+08, -8.018490570356934E+07, -5.173479157191910E+07,
2461141.500000000, A.D. 2026-Apr-11 00:00:00.0000, -4.495123602593676E+08, -8.996705229516013E+07, -5.040330058933656E+07,
2461148.500000000, A.D. 2026-Apr-18 00:00:00.0000, -4.471554635190549E+08, -9.970467568725023E+07, -4.904686209381925E+07,
2461155.500000000, A.D. 2026-Apr-25 00:00:00.0000, -4.445766157572557E+08, -1.093928172598382E+08, -4.766607879418659E+07,
2461162.500000000, A.D. 2026-May-02 00:00:00.0000, -4.417764598366231E+08, -1.190265124790918E+08, -4.626156797912499E+07,
2461169.500000000, A.D. 2026-May-09 00:00:00.0000, -4.387557443603566E+08, -1.286007931154612E+08, -4.483396147204459E+07,
2461176.500000000, A.D. 2026-May-16 00:00:00.0000, -4.355153241589104E+08, -1.381106895673090E+08, -4.338390562724442E+07,
2461183.500000000, A.D. 2026-May-23 00:00:00.0000, -4.320561601996079E+08, -1.475512322686340E+08, -4.191206128817802E+07,
2461190.500000000, A.D. 2026-May-30 00:00:00.0000, -4.283793209949660E+08, -1.569174518624476E+08, -4.041910349069913E+07,
2461197.500000000, A.D. 2026-Jun-06 00:00:00.0000, -4.244859858253711E+08, -1.662043814151136E+08, -3.890572114966695E+07,
2461204.500000000, A.D. 2026-Jun-13 00:00:00.0000, -4.203774461096936E+08, -1.754070604735804E+08, -3.737261704890487E+07,
2461211.500000000, A.D. 2026-Jun-20 00:00:00.0000, -4.160551054227325E+08, -1.845205380383504E+08, -3.582050784887751E+07,
2461218.500000000, A.D. 2026-Jun-27 00:00:00.0000, -4.115204798533756E+08, -1.935398747908170E+08, -3.425012398322284E+07,
2461225.500000000, A.D. 2026-Jul-04 00:00:00.0000, -4.067751986985189E+08, -2.024601453495815E+08, -3.266220950677520E+07,
2461232.500000000, A.D. 2026-Jul-11 00:00:00.0000, -4.018210052339944E+08, -2.112764406880892E+08, -3.105752192870337E+07,
2461239.500000000, A.D. 2026-Jul-18 00:00:00.0000, -3.966597574652704E+08, -2.199838706888658E+08, -2.943683203690086E+07,
2461246.500000000, A.D. 2026-Jul-25 00:00:00.0000, -3.912934288297190E+08, -2.285775668332621E+08, -2.780092371562463E+07,
2461253.500000000, A.D. 2026-Aug-01 00:00:00.0000, -3.857241087998271E+08, -2.370526850765067E+08, -2.615059376489249E+07,
2461260.500000000, A.D. 2026-Aug-08 00:00:00.0000, -3.799540031707850E+08, -2.454044089447957E+08, -2.448665174437724E+07,
2461267.500000000, A.D. 2026-Aug-15 00:00:00.0000, -3.739854336155358E+08, -2.536279524036303E+08, -2.280991984286404E+07,
2461274.500000000, A.D. 2026-Aug-22 00:00:00.0000, -3.678208372652647E+08, -2.617185612746940E+08, -2.112123260315926E+07,
2461281.500000000, A.D. 2026-Aug-29 00:00:00.0000, -3.614627686001505E+08, -2.696715145727059E+08, -1.942143640413046E+07,
2461288.500000000, A.D. 2026-Sep-05 00:00:00.0000, -3.549139015131015E+08, -2.774821286302091E+08, -1.771138912958683E+07,
$$EOE